{
  "links" : {
    "next" : "https://api.nasa.gov/neo/rest/v1/feed?start_date=2013-12-09&end_date=2013-12-09&detailed=true&api_key=t0TVs3DtDT2H8Oy2Zy8m2eVrNsAVKAexjcZXUckd",
    "prev" : "https://api.nasa.gov/neo/rest/v1/feed?start_date=2013-12-07&end_date=2013-12-07&detailed=true&api_key=t0TVs3DtDT2H8Oy2Zy8m2eVrNsAVKAexjcZXUckd",
    "self" : "https://api.nasa.gov/neo/rest/v1/feed?start_date=2013-12-08&end_date=2013-12-08&detailed=true&api_key=t0TVs3DtDT2H8Oy2Zy8m2eVrNsAVKAexjcZXUckd"
  },
  "element_count" : 3,
  "near_earth_objects" : {
    "2013-12-08" : [ {
      "links" : {
        "self" : "https://api.nasa.gov/neo/rest/v1/neo/3127391?api_key=t0TVs3DtDT2H8Oy2Zy8m2eVrNsAVKAexjcZXUckd"
      },
      "neo_reference_id" : "3127391",
      "name" : "(2002 LY1)",
      "nasa_jpl_url" : "http://ssd.jpl.nasa.gov/sbdb.cgi?sstr=3127391",
      "absolute_magnitude_h" : 22.3,
      "estimated_diameter" : {
        "kilometers" : {
          "estimated_diameter_min" : 0.0921626549,
          "estimated_diameter_max" : 0.2060819612
        },
        "meters" : {
          "estimated_diameter_min" : 92.1626548503,
          "estimated_diameter_max" : 206.0819612321
        },
        "miles" : {
          "estimated_diameter_min" : 0.057267201,
          "estimated_diameter_max" : 0.1280533543
        },
        "feet" : {
          "estimated_diameter_min" : 302.370924539,
          "estimated_diameter_max" : 676.1219416887
        }
      },
      "is_potentially_hazardous_asteroid" : false,
      "close_approach_data" : [ {
        "close_approach_date" : "2013-12-08",
        "epoch_date_close_approach" : 1386489600000,
        "relative_velocity" : {
          "kilometers_per_second" : "10.4420326475",
          "kilometers_per_hour" : "37591.3175310115",
          "miles_per_hour" : "23357.7828291999"
        },
        "miss_distance" : {
          "astronomical" : "0.3197128791",
          "lunar" : "124.368309021",
          "kilometers" : "47828368",
          "miles" : "29719168"
        },
        "orbiting_body" : "Earth"
      } ],
      "orbital_data" : {
        "orbit_id" : "49",
        "orbit_determination_date" : "2017-04-06 09:15:06",
        "orbit_uncertainty" : "0",
        "minimum_orbit_intersection" : ".0118552",
        "jupiter_tisserand_invariant" : "6.239",
        "epoch_osculation" : "2458000.5",
        "eccentricity" : ".3787089687408907",
        "semi_major_axis" : ".9552699021870937",
        "inclination" : "2.896738068038088",
        "ascending_node_longitude" : "247.8412363822014",
        "orbital_period" : "341.0260609822022",
        "perihelion_distance" : ".593500622660608",
        "perihelion_argument" : "134.2365147111045",
        "aphelion_distance" : "1.31703918171358",
        "perihelion_time" : "2457969.690337126782",
        "mean_anomaly" : "32.52384466575247",
        "mean_motion" : "1.055637797777537",
        "equinox" : "J2000"
      }
    }, {
      "links" : {
        "self" : "https://api.nasa.gov/neo/rest/v1/neo/3519518?api_key=t0TVs3DtDT2H8Oy2Zy8m2eVrNsAVKAexjcZXUckd"
      },
      "neo_reference_id" : "3519518",
      "name" : "(2010 JK1)",
      "nasa_jpl_url" : "http://ssd.jpl.nasa.gov/sbdb.cgi?sstr=3519518",
      "absolute_magnitude_h" : 24.4,
      "estimated_diameter" : {
        "kilometers" : {
          "estimated_diameter_min" : 0.0350392641,
          "estimated_diameter_max" : 0.0783501764
        },
        "meters" : {
          "estimated_diameter_min" : 35.0392641108,
          "estimated_diameter_max" : 78.3501764334
        },
        "miles" : {
          "estimated_diameter_min" : 0.0217723826,
          "estimated_diameter_max" : 0.0486845275
        },
        "feet" : {
          "estimated_diameter_min" : 114.9582192654,
          "estimated_diameter_max" : 257.0543928497
        }
      },
      "is_potentially_hazardous_asteroid" : false,
      "close_approach_data" : [ {
        "close_approach_date" : "2013-12-08",
        "epoch_date_close_approach" : 1386489600000,
        "relative_velocity" : {
          "kilometers_per_second" : "13.9995275057",
          "kilometers_per_hour" : "50398.2990206885",
          "miles_per_hour" : "31315.543077605"
        },
        "miss_distance" : {
          "astronomical" : "0.3048420184",
          "lunar" : "118.5835494995",
          "kilometers" : "45603720",
          "miles" : "28336836"
        },
        "orbiting_body" : "Earth"
      } ],
      "orbital_data" : {
        "orbit_id" : "24",
        "orbit_determination_date" : "2017-04-06 08:57:39",
        "orbit_uncertainty" : "2",
        "minimum_orbit_intersection" : ".00184959",
        "jupiter_tisserand_invariant" : "5.934",
        "epoch_osculation" : "2458000.5",
        "eccentricity" : ".1503116064839002",
        "semi_major_axis" : "1.029522079425049",
        "inclination" : ".1668281176381035",
        "ascending_node_longitude" : "201.8504404238901",
        "orbital_period" : "381.5504099023001",
        "perihelion_distance" : ".8747729617560247",
        "perihelion_argument" : "137.8162471836934",
        "aphelion_distance" : "1.184271197094074",
        "perihelion_time" : "2458095.081316772440",
        "mean_anomaly" : "270.7607457510083",
        "mean_motion" : ".943518839600203",
        "equinox" : "J2000"
      }
    }, {
      "links" : {
        "self" : "https://api.nasa.gov/neo/rest/v1/neo/3709924?api_key=t0TVs3DtDT2H8Oy2Zy8m2eVrNsAVKAexjcZXUckd"
      },
      "neo_reference_id" : "3709924",
      "name" : "(2015 CR)",
      "nasa_jpl_url" : "http://ssd.jpl.nasa.gov/sbdb.cgi?sstr=3709924",
      "absolute_magnitude_h" : 23.1,
      "estimated_diameter" : {
        "kilometers" : {
          "estimated_diameter_min" : 0.063760979,
          "estimated_diameter_max" : 0.1425738833
        },
        "meters" : {
          "estimated_diameter_min" : 63.7609789875,
          "estimated_diameter_max" : 142.5738833281
        },
        "miles" : {
          "estimated_diameter_min" : 0.0396192233,
          "estimated_diameter_max" : 0.0885912765
        },
        "feet" : {
          "estimated_diameter_min" : 209.1895703015,
          "estimated_diameter_max" : 467.7620993781
        }
      },
      "is_potentially_hazardous_asteroid" : false,
      "close_approach_data" : [ {
        "close_approach_date" : "2013-12-08",
        "epoch_date_close_approach" : 1386489600000,
        "relative_velocity" : {
          "kilometers_per_second" : "6.7174780972",
          "kilometers_per_hour" : "24182.9211500975",
          "miles_per_hour" : "15026.326755737"
        },
        "miss_distance" : {
          "astronomical" : "0.1967152131",
          "lunar" : "76.5222167969",
          "kilometers" : "29428176",
          "miles" : "18285820"
        },
        "orbiting_body" : "Earth"
      } ],
      "orbital_data" : {
        "orbit_id" : "4",
        "orbit_determination_date" : "2017-04-06 08:35:48",
        "orbit_uncertainty" : "7",
        "minimum_orbit_intersection" : ".034649",
        "jupiter_tisserand_invariant" : "6.281",
        "epoch_osculation" : "2458000.5",
        "eccentricity" : ".280185412171163",
        "semi_major_axis" : ".9529400536354948",
        "inclination" : "2.652785580537089",
        "ascending_node_longitude" : "305.85983169",
        "orbital_period" : "339.7792074754196",
        "perihelion_distance" : ".6859401519332236",
        "perihelion_argument" : "343.5695888402005",
        "aphelion_distance" : "1.219939955337766",
        "perihelion_time" : "2457869.714432295878",
        "mean_anomaly" : "138.5688215689006",
        "mean_motion" : "1.059511565392191",
        "equinox" : "J2000"
      }
    } ]
  }
}